[{"OBJECT_NAME":"STARLINK-34229","OBJECT_ID":"2025-119T","EPOCH":"2026-03-08T16:38:06.744768","MEAN_MOTION":15.27603613,"ECCENTRICITY":0.00013273,"INCLINATION":42.9995,"RA_OF_ASC_NODE":312.9644,"ARG_OF_PERICENTER":274.4295,"MEAN_ANOMALY":85.6405,"EPHEMERIS_TYPE":0,"CLASSIFICATION_TYPE":"U","NORAD_CAT_ID":64250,"ELEMENT_SET_NO":999,"REV_AT_EPOCH":4401,"BSTAR":0.001387109,"MEAN_MOTION_DOT":0.00038133,"MEAN_MOTION_DDOT":0},{"OBJECT_NAME":"COSMOS 252 DEB","OBJECT_ID":"1968-097CF","EPOCH":"2026-03-09T12:03:06.881472","MEAN_MOTION":13.89760968,"ECCENTRICITY":0.06306282,"INCLINATION":62.7318,"RA_OF_ASC_NODE":125.8805,"ARG_OF_PERICENTER":159.9223,"MEAN_ANOMALY":202.7883,"EPHEMERIS_TYPE":0,"CLASSIFICATION_TYPE":"U","NORAD_CAT_ID":4421,"ELEMENT_SET_NO":999,"REV_AT_EPOCH":54558,"BSTAR":0.0010172608,"MEAN_MOTION_DOT":6.493e-5,"MEAN_MOTION_DDOT":0}]
